NORAD_CAT_ID,OBJECT_NAME,OBJECT_TYPE,EPOCH,MEAN_MOTION,ECCENTRICITY,INCLINATION,RA_OF_ASC_NODE,ARG_OF_PERICENTER,MEAN_ANOMALY,BSTAR,MEAN_MOTION_DOT,MEAN_MOTION_DDOT,TLE_LINE0,TLE_LINE1,TLE_LINE2,SEMIMAJOR_AXIS,PERIOD,APOGEE,PERIGEE,DECAYED
53820.0,STARLINK-4758,PAYLOAD,2023-09-07 13:06:20,15.08840686,0.0001267,53.2154,88.0863,94.6252,265.4885,5.9557e-05,6.6e-06,0.0,0 STARLINK-4758,1 53820U 22114C   23250.54606667  .00000660  00000-0  59557-4 0  9997,2 53820  53.2154  88.0863 0001267  94.6252 265.4885 15.08840686 54820,6917.878,95.438,540.62,538.867,0.0
53820.0,STARLINK-4758,PAYLOAD,2023-09-08 12:57:06,15.08845148,0.0001186,53.2174,83.6268,86.1127,274.0001,8.5361e-05,1.071e-05,0.0,0 STARLINK-4758,1 53820U 22114C   23251.53966238  .00001071  00000-0  85361-4 0  9999,2 53820  53.2174  83.6268 0001186  86.1127 274.0001 15.08845148 54979,6917.865,95.437,540.55,538.909,0.0
53820.0,STARLINK-4758,PAYLOAD,2023-09-08 19:18:39,15.0884544,0.0001227,53.2178,82.439,87.6923,272.421,0.00010898,1.447e-05,0.0,0 STARLINK-4758,1 53820U 22114C   23251.80462200  .00001447  00000-0  10898-3 0  9998,2 53820  53.2178  82.4390 0001227  87.6923 272.4210 15.08845440 54476,6917.864,95.437,540.578,538.88,0.0
53820.0,STARLINK-4758,PAYLOAD,2023-09-09 12:47:54,15.08843212,0.0001338,53.2185,79.1689,89.3807,270.7338,5.1013e-05,5.24e-06,0.0,0 STARLINK-4758,1 53820U 22114C   23252.53326429  .00000524  00000-0  51013-4 0  9991,2 53820  53.2185  79.1689 0001338  89.3807 270.7338 15.08843212 55121,6917.871,95.437,540.661,538.81,0.0
53820.0,STARLINK-4758,PAYLOAD,2023-09-09 19:09:25,15.0886204,0.0001206,53.2181,77.9778,92.9454,267.1676,0.00020792,3.025e-05,0.0,0 STARLINK-4758,1 53820U 22114C   23252.79820727  .00003025  00000-0  20792-3 0  9997,2 53820  53.2181  77.9778 0001206  92.9454 267.1676 15.08862040 54623,6917.813,95.436,540.512,538.844,0.0
53820.0,STARLINK-4758,PAYLOAD,2023-09-10 12:38:41,15.08839231,0.0001512,53.2183,74.7083,92.8856,267.2309,1.0096e-05,-1.27e-06,0.0,0 STARLINK-4758,1 53820U 22114C   23253.52686394 -.00000127  00000-0  10096-4 0  9997,2 53820  53.2183  74.7083 0001512  92.8856 267.2309 15.08839231 55276,6917.883,95.438,540.794,538.702,0.0
53820.0,STARLINK-4758,PAYLOAD,2023-09-10 19:00:13,15.08836686,0.0001123,53.2178,73.5173,80.8521,279.2598,-2.494e-05,-6.85e-06,0.0,0 STARLINK-4758,1 53820U 22114C   23253.79182690 -.00000685  00000-0 -24940-4 0  9999,2 53820  53.2178  73.5173 0001123  80.8521 279.2598 15.08836686 54779,6917.891,95.438,540.532,538.979,0.0
53820.0,STARLINK-4758,PAYLOAD,2023-09-11 12:29:28,15.08844545,0.0001157,53.2182,70.246,84.1494,275.963,-0.00011424,-2.106e-05,0.0,0 STARLINK-4758,1 53820U 22114C   23254.52046706 -.00002106  00000-0 -11424-3 0  9990,2 53820  53.2182  70.2460 0001157  84.1494 275.9630 15.08844545 55426,6917.866,95.437,540.532,538.931,0.0
53820.0,STARLINK-4758,PAYLOAD,2023-09-11 17:15:37,15.08847594,0.0001199,53.2181,69.3545,85.4353,274.6776,-6.9118e-05,-1.388e-05,0.0,0 STARLINK-4758,1 53820U 22114C   23254.71918339 -.00001388  00000-0 -69118-4 0  9996,2 53820  53.2181  69.3545 0001199  85.4353 274.6776 15.08847594 54919,6917.857,95.437,540.552,538.893,0.0
53820.0,STARLINK-4758,PAYLOAD,2023-09-12 10:44:52,15.08831157,0.0001207,53.2186,66.085,78.1476,281.9651,0.00013248,1.821e-05,0.0,0 STARLINK-4758,1 53820U 22114C   23255.44782982  .00001821  00000-0  13248-3 0  9992,2 53820  53.2186  66.0850 0001207  78.1476 281.9651 15.08831157 55026,6917.907,95.438,540.607,538.937,0.0
53820.0,STARLINK-4758,PAYLOAD,2023-09-12 12:20:15,15.0882885,0.0001187,53.2185,65.7872,78.5197,281.5929,0.00010766,1.425e-05,0.0,0 STARLINK-4758,1 53820U 22114C   23255.51407241  .00001425  00000-0  10766-3 0  9994,2 53820  53.2185  65.7872 0001187  78.5197 281.5929 15.08828850 55576,6917.914,95.438,540.601,538.958,0.0
53820.0,STARLINK-4758,PAYLOAD,2023-09-12 18:41:47,15.08837973,0.0001228,53.2184,64.5971,78.3652,281.7478,0.00015714,2.214e-05,0.0,0 STARLINK-4758,1 53820U 22114C   23255.77902756  .00002214  00000-0  15714-3 0  9998,2 53820  53.2184  64.5971 0001228  78.3652 281.7478 15.08837973 55614,6917.887,95.438,540.601,538.902,0.0
53820.0,STARLINK-4758,PAYLOAD,2023-09-13 04:14:06,15.08841019,0.0001228,53.2184,62.813,80.4568,279.6562,0.00016781,2.384e-05,0.0,0 STARLINK-4758,1 53820U 22114C   23256.17646698  .00002384  00000-0  16781-3 0  9996,2 53820  53.2184  62.8130 0001228  80.4568 279.6562 15.08841019 55135,6917.877,95.437,540.592,538.893,0.0
53820.0,STARLINK-4758,PAYLOAD,2023-09-13 18:32:34,15.08851699,0.0001406,53.2176,60.1368,88.2722,271.8432,0.00020312,2.947e-05,0.0,0 STARLINK-4758,1 53820U 22114C   23256.77262132  .00002947  00000-0  20312-3 0  9999,2 53820  53.2176  60.1368 0001406  88.2722 271.8432 15.08851699 55760,6917.845,95.437,540.682,538.737,0.0
53820.0,STARLINK-4758,PAYLOAD,2023-09-14 10:26:26,15.08834025,0.0001355,53.2176,57.1623,83.0366,277.0781,-3.1294e-05,-7.86e-06,0.0,0 STARLINK-4758,1 53820U 22114C   23257.43503296 -.00000786  00000-0 -31294-4 0  9995,2 53820  53.2176  57.1623 0001355  83.0366 277.0781 15.08834025 55321,6917.899,95.438,540.701,538.826,0.0
53820.0,STARLINK-4758,PAYLOAD,2023-09-14 12:01:50,15.08833625,0.0001399,53.2173,56.8643,78.9692,281.1457,-3.6422e-05,-8.67e-06,0.0,0 STARLINK-4758,1 53820U 22114C   23257.50127374 -.00000867  00000-0 -36422-4 0  9990,2 53820  53.2173  56.8643 0001399  78.9692 281.1457 15.08833625 55870,6917.9,95.438,540.733,538.797,0.0
53820.0,STARLINK-4758,PAYLOAD,2023-09-14 18:23:22,15.08831745,0.0001222,53.2173,55.6747,72.0958,288.0167,-3.8529e-05,-9.01e-06,0.0,0 STARLINK-4758,1 53820U 22114C   23257.76623667 -.00000901  00000-0 -38529-4 0  9993,2 53820  53.2173  55.6747 0001222  72.0958 288.0167 15.08831745 55917,6917.906,95.438,540.616,538.925,0.0
53820.0,STARLINK-4758,PAYLOAD,2023-09-15 10:17:14,15.08839683,0.0001241,53.218,52.6998,70.3798,289.7328,9.6313e-05,1.245e-05,0.0,0 STARLINK-4758,1 53820U 22114C   23258.42863592  .00001245  00000-0  96313-4 0  9995,2 53820  53.2180  52.6998 0001241  70.3798 289.7328 15.08839683 56012,6917.881,95.438,540.605,538.888,0.0
53820.0,STARLINK-4758,PAYLOAD,2023-09-15 16:38:46,15.08849242,0.0001458,53.2172,51.5112,58.7372,301.3762,0.00033571,5.06e-05,0.0,0 STARLINK-4758,1 53820U 22114C   23258.69359255  .00005060  00000-0  33571-3 0  9995,2 53820  53.2172  51.5112 0001458  58.7372 301.3762 15.08849242 55516,6917.852,95.437,540.726,538.709,0.0
53820.0,STARLINK-4758,PAYLOAD,2023-09-16 10:08:01,15.08843958,0.0001521,53.2178,48.2418,78.9179,281.1984,0.00031045,4.657e-05,0.0,0 STARLINK-4758,1 53820U 22114C   23259.42223595  .00004657  00000-0  31045-3 0  9999,2 53820  53.2178  48.2418 0001521  78.9179 281.1984 15.08843958 55625,6917.868,95.437,540.785,538.681,0.0
53820.0,STARLINK-4758,PAYLOAD,2023-09-16 13:18:47,15.08841532,0.0001466,53.2177,47.6465,83.2409,276.875,0.00022814,3.345e-05,0.0,0 STARLINK-4758,1 53820U 22114C   23259.55471618  .00003345  00000-0  22814-3 0  9991,2 53820  53.2177  47.6465 0001466  83.2409 276.8750 15.08841532 56182,6917.876,95.437,540.755,538.727,0.0
53820.0,STARLINK-4758,PAYLOAD,2023-09-16 16:29:33,15.08839732,0.0001428,53.218,47.0519,79.426,280.6893,0.00020869,3.035e-05,0.0,0 STARLINK-4758,1 53820U 22114C   23259.68719736  .00003035  00000-0  20869-3 0  9995,2 53820  53.2180  47.0519 0001428  79.4260 280.6893 15.08839732 55662,6917.881,95.438,540.734,538.758,0.0
53820.0,STARLINK-4758,PAYLOAD,2023-09-17 09:58:48,15.08845844,0.000143,53.2182,43.7817,81.828,278.2874,9.0492e-05,1.153e-05,0.0,0 STARLINK-4758,1 53820U 22114C   23260.41583409  .00001153  00000-0  90492-4 0  9993,2 53820  53.2182  43.7817 0001430  81.8280 278.2874 15.08845844 56316,6917.863,95.437,540.717,538.738,0.0
53820.0,STARLINK-4758,PAYLOAD,2023-09-18 13:00:21,15.08841735,0.0001482,53.2197,38.7261,80.3158,279.8002,2.2908e-05,7.7e-07,0.0,0 STARLINK-4758,1 53820U 22114C   23261.54191592  .00000077  00000-0  22908-4 0  9997,2 53820  53.2197  38.7261 0001482  80.3158 279.8002 15.08841735 56487,6917.875,95.437,540.765,538.715,0.0
53820.0,STARLINK-4758,PAYLOAD,2023-09-18 16:11:07,15.08840344,0.00013,53.2195,38.1318,81.0041,279.1099,8.9683e-05,1.14e-05,0.0,0 STARLINK-4758,1 53820U 22114C   23261.67439512  .00001140  00000-0  89683-4 0  9993,2 53820  53.2195  38.1318 0001300  81.0041 279.1099 15.08840344 55966,6917.879,95.438,540.644,538.845,0.0
53820.0,STARLINK-4758,PAYLOAD,2023-09-18 19:21:53,15.08848558,0.0001306,53.2205,37.537,81.99,278.124,0.00012076,1.635e-05,0.0,0 STARLINK-4758,1 53820U 22114C   23261.80686903  .00001635  00000-0  12076-3 0  9996,2 53820  53.2205  37.5370 0001306  81.9900 278.1240 15.08848558 56523,6917.854,95.437,540.623,538.816,0.0
53820.0,STARLINK-4758,PAYLOAD,2023-09-19 16:01:52,15.08878886,0.0001596,53.2192,33.6714,93.281,266.8365,0.000531,8.182e-05,0.0,0 STARLINK-4758,1 53820U 22114C   23262.66797163  .00008182  00000-0  53100-3 0  9999,2 53820  53.2192  33.6714 0001596  93.2810 266.8365 15.08878886 56118,6917.762,95.435,540.731,538.522,0.0
53820.0,STARLINK-4758,PAYLOAD,2023-09-20 12:41:56,15.08822715,0.0001059,53.219,29.8051,95.3527,264.7586,-0.00022092,-3.8e-05,0.0,0 STARLINK-4758,1 53820U 22114C   23263.52912561 -.00003800  00000-0 -22092-3 0  9996,2 53820  53.2190  29.8051 0001059  95.3527 264.7586 15.08822715 56245,6917.933,95.439,540.531,539.066,0.0
53820.0,STARLINK-4758,PAYLOAD,2023-09-20 14:17:19,15.0882355,0.0001287,53.2194,29.5072,101.7385,258.3752,-0.00022316,-3.836e-05,0.0,0 STARLINK-4758,1 53820U 22114C   23263.59536584 -.00003836  00000-0 -22316-3 0  9998,2 53820  53.2194  29.5072 0001287 101.7385 258.3752 15.08823550 56798,6917.931,95.439,540.686,538.905,0.0
53820.0,STARLINK-4758,PAYLOAD,2023-09-20 17:28:05,15.08824656,0.0001242,53.2189,28.9117,104.5539,255.5591,-0.00019156,-3.334e-05,0.0,0 STARLINK-4758,1 53820U 22114C   23263.72784626 -.00003334  00000-0 -19156-3 0  9996,2 53820  53.2189  28.9117 0001242 104.5539 255.5591 15.08824656 56819,6917.927,95.439,540.651,538.933,0.0
